NORAD_CAT_ID,OBJECT_NAME,OBJECT_TYPE,EPOCH,MEAN_MOTION,ECCENTRICITY,INCLINATION,RA_OF_ASC_NODE,ARG_OF_PERICENTER,MEAN_ANOMALY,BSTAR,MEAN_MOTION_DOT,MEAN_MOTION_DDOT,TLE_LINE0,TLE_LINE1,TLE_LINE2,SEMIMAJOR_AXIS,PERIOD,APOGEE,PERIGEE,DECAYED
53818.0,STARLINK-4749,PAYLOAD,2023-05-21 22:04:55,15.16917994,0.0004704,53.2152,213.0474,321.8042,38.2619,0.0015794,0.00031342,0.0,0 STARLINK-4749,1 53818U 22114A   23141.92009133  .00031342  00000-0  15794-2 0  9994,2 53818  53.2152 213.0474 0004704 321.8042  38.2619 15.16917994 38564,6893.299,94.929,518.406,511.921,0.0
53818.0,STARLINK-4749,PAYLOAD,2023-05-22 10:43:56,15.16956363,0.0004746,53.2152,210.6514,324.4244,35.6435,0.0020143,0.00040152,0.0,0 STARLINK-4749,1 53818U 22114A   23142.44718176  .00040152  00000-0  20143-2 0  9999,2 53818  53.2152 210.6514 0004746 324.4244  35.6435 15.16956363 38640,6893.183,94.927,518.319,511.776,0.0
53818.0,STARLINK-4749,PAYLOAD,2023-05-22 12:18:49,15.16952504,0.0004805,53.2152,210.3527,324.9216,35.1463,0.0015519,0.00030819,0.0,0 STARLINK-4749,1 53818U 22114A   23142.51306773  .00030819  00000-0  15519-2 0  9993,2 53818  53.2152 210.3527 0004805 324.9216  35.1463 15.16952504 38651,6893.194,94.927,518.371,511.747,0.0
53818.0,STARLINK-4749,PAYLOAD,2023-05-23 10:27:02,15.16998205,0.0004942,53.2151,206.1601,329.2444,30.8261,0.0013071,0.00025925,0.0,0 STARLINK-4749,1 53818U 22114A   23143.43545066  .00025925  00000-0  13071-2 0  9998,2 53818  53.2151 206.1601 0004942 329.2444  30.8261 15.16998205 38150,6893.056,94.924,518.327,511.514,0.0
53818.0,STARLINK-4749,PAYLOAD,2023-05-23 21:31:09,15.17014528,0.0005035,53.2151,204.0635,331.0576,29.014,0.0010956,0.00021677,0.0,0 STARLINK-4749,1 53818U 22114A   23143.89663321  .00021677  00000-0  10956-2 0  9992,2 53818  53.2151 204.0635 0005035 331.0576  29.0140 15.17014528 38867,6893.006,94.923,518.342,511.401,0.0
53818.0,STARLINK-4749,PAYLOAD,2023-05-24 08:35:14,15.17036455,0.000509,53.2151,201.967,333.0799,26.9932,0.0011171,0.00022124,0.0,0 STARLINK-4749,1 53818U 22114A   23144.35780853  .00022124  00000-0  11171-2 0  9992,2 53818  53.2151 201.9670 0005090 333.0799  26.9932 15.17036455 38297,6892.94,94.922,518.313,511.296,0.0
53818.0,STARLINK-4749,PAYLOAD,2023-05-26 00:06:56,15.17091036,0.0005378,53.2159,194.4786,338.9908,21.0866,0.00085486,0.00016871,0.0,0 STARLINK-4749,1 53818U 22114A   23146.00482531  .00016871  00000-0  85486-3 0  9991,2 53818  53.2159 194.4786 0005378 338.9908  21.0866 15.17091036 38540,6892.775,94.918,518.347,510.933,0.0
53818.0,STARLINK-4749,PAYLOAD,2023-05-26 12:45:52,15.17106034,0.0005498,53.2162,192.0826,341.1489,18.9302,0.00075975,0.00014962,0.0,0 STARLINK-4749,1 53818U 22114A   23146.53185849  .00014962  00000-0  75975-3 0  9992,2 53818  53.2162 192.0826 0005498 341.1489  18.9302 15.17106034 39261,6892.729,94.918,518.384,510.805,0.0
53818.0,STARLINK-4749,PAYLOAD,2023-05-27 09:19:07,15.17126933,0.000559,53.2167,188.1886,344.3145,15.7676,0.00062973,0.00012351,0.0,0 STARLINK-4749,1 53818U 22114A   23147.38827706  .00012351  00000-0  62973-3 0  9995,2 53818  53.2167 188.1886 0005590 344.3145  15.7676 15.17126933 38757,6892.666,94.916,518.384,510.678,0.0
53818.0,STARLINK-4749,PAYLOAD,2023-05-27 12:28:50,15.17130092,0.0005598,53.2168,187.5894,344.6193,15.4631,0.00062541,0.00012265,0.0,0 STARLINK-4749,1 53818U 22114A   23147.52003277  .00012265  00000-0  62541-3 0  9995,2 53818  53.2168 187.5894 0005598 344.6193  15.4631 15.17130092 39417,6892.656,94.916,518.38,510.663,0.0
53818.0,STARLINK-4749,PAYLOAD,2023-05-28 05:52:20,15.17146284,0.0005658,53.2171,184.2942,347.1203,12.9647,0.00061302,0.00012021,0.0,0 STARLINK-4749,1 53818U 22114A   23148.24468496  .00012021  00000-0  61302-3 0  9997,2 53818  53.2171 184.2942 0005658 347.1203  12.9647 15.17146284 39527,6892.607,94.915,518.372,510.572,0.0
53818.0,STARLINK-4749,PAYLOAD,2023-05-28 09:02:04,15.17149422,0.0005668,53.2173,183.6952,347.5694,12.5161,0.00062458,0.00012255,0.0,0 STARLINK-4749,1 53818U 22114A   23148.37643900  .00012255  00000-0  62458-3 0  9998,2 53818  53.2173 183.6952 0005668 347.5694  12.5161 15.17149422 39548,6892.598,94.915,518.37,510.556,0.0
53818.0,STARLINK-4749,PAYLOAD,2023-05-28 23:15:50,15.17164209,0.0005703,53.2175,180.9993,349.5515,10.5362,0.00066297,0.00013035,0.0,0 STARLINK-4749,1 53818U 22114A   23148.96932875  .00013035  00000-0  66297-3 0  9997,2 53818  53.2175 180.9993 0005703 349.5515  10.5362 15.17164209 38998,6892.553,94.914,518.349,510.487,0.0
53818.0,STARLINK-4749,PAYLOAD,2023-05-29 11:54:43,15.17172869,0.0005763,53.2177,178.6032,351.127,8.9623,0.00053949,0.00010547,0.0,0 STARLINK-4749,1 53818U 22114A   23149.49633800  .00010547  00000-0  53949-3 0  9997,2 53818  53.2177 178.6032 0005763 351.1270   8.9623 15.17172869 39714,6892.527,94.913,518.364,510.42,0.0
53818.0,STARLINK-4749,PAYLOAD,2023-05-30 02:08:28,15.17183705,0.0005756,53.2178,175.9072,352.7923,7.2989,0.00048966,9.546e-05,0.0,0 STARLINK-4749,1 53818U 22114A   23150.08921914  .00009546  00000-0  48966-3 0  9990,2 53818  53.2178 175.9072 0005756 352.7923   7.2989 15.17183705 39160,6892.494,94.913,518.326,510.392,0.0
53818.0,STARLINK-4749,PAYLOAD,2023-05-30 08:27:55,15.17186663,0.0005727,53.2179,174.709,353.5302,6.5619,0.00043559,8.456e-05,0.0,0 STARLINK-4749,1 53818U 22114A   23150.35272069  .00008456  00000-0  43559-3 0  9992,2 53818  53.2179 174.7090 0005727 353.5302   6.5619 15.17186663 39849,6892.485,94.913,518.297,510.403,0.0
53818.0,STARLINK-4749,PAYLOAD,2023-05-31 06:35:57,15.17200201,0.0005755,53.2178,170.5153,356.1434,3.9517,0.00039064,7.553e-05,0.0,0 STARLINK-4749,1 53818U 22114A   23151.27497092  .00007553  00000-0  39064-3 0  9992,2 53818  53.2178 170.5153 0005755 356.1434   3.9517 15.17200201 39346,6892.444,94.912,518.276,510.342,0.0
53818.0,STARLINK-4749,PAYLOAD,2023-05-31 11:20:32,15.17203694,0.0005786,53.2178,169.6168,356.6789,3.4167,0.00040713,7.886e-05,0.0,0 STARLINK-4749,1 53818U 22114A   23151.47259493  .00007886  00000-0  40713-3 0  9997,2 53818  53.2178 169.6168 0005786 356.6789   3.4167 15.17203694 40014,6892.433,94.911,518.286,510.31,0.0
53818.0,STARLINK-4749,PAYLOAD,2023-05-31 17:39:58,15.17206936,0.0005881,53.2177,168.4186,357.29,2.8063,0.00038161,7.372e-05,0.0,0 STARLINK-4749,1 53818U 22114A   23151.73609316  .00007372  00000-0  38161-3 0  9993,2 53818  53.2177 168.4186 0005881 357.2900   2.8063 15.17206936 40052,6892.424,94.911,518.342,510.235,0.0
53818.0,STARLINK-4749,PAYLOAD,2023-06-01 07:53:42,15.17216438,0.0006042,53.2174,165.7225,358.876,1.2221,0.00039498,7.644e-05,0.0,0 STARLINK-4749,1 53818U 22114A   23152.32896123  .00007644  00000-0  39498-3 0  9999,2 53818  53.2174 165.7225 0006042 358.8760   1.2221 15.17216438 40141,6892.395,94.911,518.424,510.095,0.0
53818.0,STARLINK-4749,PAYLOAD,2023-06-02 07:36:34,15.17228038,0.0006086,53.2171,161.2292,1.4981,358.6032,0.00031288,5.99e-05,0.0,0 STARLINK-4749,1 53818U 22114A   23153.31706767  .00005990  00000-0  31288-3 0  9994,2 53818  53.2171 161.2292 0006086   1.4981 358.6032 15.17228038 40291,6892.36,94.91,518.419,510.03,0.0
53818.0,STARLINK-4749,PAYLOAD,2023-06-02 17:05:43,15.17233439,0.00061,53.2169,159.4318,2.5887,357.5139,0.00031831,6.101e-05,0.0,0 STARLINK-4749,1 53818U 22114A   23153.71230800  .00006101  00000-0  31831-3 0  9997,2 53818  53.2169 159.4318 0006100   2.5887 357.5139 15.17233439 39712,6892.343,94.91,518.413,510.004,0.0
53818.0,STARLINK-4749,PAYLOAD,2023-06-03 10:29:09,15.17241073,0.0006064,53.2168,156.1371,4.5034,355.6016,0.00028987,5.528e-05,0.0,0 STARLINK-4749,1 53818U 22114A   23154.43691232  .00005528  00000-0  28987-3 0  9997,2 53818  53.2168 156.1371 0006064   4.5034 355.6016 15.17241073 40469,6892.32,94.909,518.365,510.006,0.0
53818.0,STARLINK-4749,PAYLOAD,2023-06-03 16:48:34,15.17243679,0.0006057,53.2168,154.9389,5.2494,354.8564,0.0002792,5.314e-05,0.0,0 STARLINK-4749,1 53818U 22114A   23154.70040379  .00005314  00000-0  27920-3 0  9996,2 53818  53.2168 154.9389 0006057   5.2494 354.8564 15.17243679 40502,6892.312,94.909,518.352,510.003,0.0
53818.0,STARLINK-4749,PAYLOAD,2023-06-03 23:08:00,15.17247427,0.0006067,53.2168,153.7406,6.0387,354.0681,0.00029465,5.626e-05,0.0,0 STARLINK-4749,1 53818U 22114A   23154.96389465  .00005626  00000-0  29465-3 0  9998,2 53818  53.2168 153.7406 0006067   6.0387 354.0681 15.17247427 39909,6892.301,94.909,518.348,509.984,0.0
53818.0,STARLINK-4749,PAYLOAD,2023-06-04 08:37:08,15.17250513,0.0006111,53.2168,151.9432,7.0389,353.0691,0.00026713,5.071e-05,0.0,0 STARLINK-4749,1 53818U 22114A   23155.35913049  .00005071  00000-0  26713-3 0  9990,2 53818  53.2168 151.9432 0006111   7.0389 353.0691 15.17250513 40600,6892.292,94.909,518.369,509.945,0.0
53818.0,STARLINK-4749,PAYLOAD,2023-06-04 19:41:08,15.17256378,0.000612,53.2167,149.8462,8.3398,351.7698,0.00028331,5.399e-05,0.0,0 STARLINK-4749,1 53818U 22114A   23155.82023698  .00005399  00000-0  28331-3 0  9995,2 53818  53.2167 149.8462 0006120   8.3398 351.7698 15.17256378 40676,6892.274,94.908,518.357,509.921,0.0
53818.0,STARLINK-4749,PAYLOAD,2023-06-05 05:10:16,15.17261204,0.0006136,53.2167,148.0489,9.432,350.679,0.00028603,5.454e-05,0.0,0 STARLINK-4749,1 53818U 22114A   23156.21546977  .00005454  00000-0  28603-3 0  9993,2 53818  53.2167 148.0489 0006136   9.4320 350.6790 15.17261204 40091,6892.259,94.908,518.353,509.895,0.0
53818.0,STARLINK-4749,PAYLOAD,2023-06-05 08:19:59,15.17263741,0.0006147,53.2166,147.4498,9.7748,350.3367,0.00030674,5.873e-05,0.0,0 STARLINK-4749,1 53818U 22114A   23156.34721357  .00005873  00000-0  30674-3 0  9990,2 53818  53.2166 147.4498 0006147   9.7748 350.3367 15.17263741 40750,6892.252,94.908,518.353,509.88,0.0
53818.0,STARLINK-4749,PAYLOAD,2023-06-06 08:02:48,15.17281333,0.0006191,53.2163,142.9566,12.7821,347.333,0.00040212,7.803e-05,0.0,0 STARLINK-4749,1 53818U 22114A   23157.33528675  .00007803  00000-0  40212-3 0  9992,2 53818  53.2163 142.9566 0006191  12.7821 347.3330 15.17281333 40267,6892.198,94.907,518.33,509.796,0.0
